0 BREEZE-M DEB (TANK)
1 39010U 12065C   13282.40126979  .00003093  00000-0  70267-3 0  1825
2 39010 049.7268 038.6760 4718231 251.9877 052.5944 06.06241083 19410
0 BREEZE-M DEB (TANK)
1 39010U 12065C   13286.02887098  .00003807  00000-0  84208-3 0  1848
2 39010 049.7250 035.1986 4718160 254.9233 049.8942 06.06269132 19639
0 BREEZE-M DEB (TANK)
1 39010U 12065C   13288.00754045  .00003029  00000-0  66742-3 0  1853
2 39010 049.7204 033.3090 4718174 256.5159 048.4972 06.06278695 19759
0 BREEZE-M DEB (TANK)
1 39010U 12065C   13289.82130427  .00002804  00000-0  62366-3 0  1865
2 39010 049.7158 031.5790 4718198 257.9763 047.2483 06.06288259 19869
0 BREEZE-M DEB (TANK)
1 39010U 12065C   13292.29458841  .00003032  00000-0  68269-3 0  1876
2 39010 049.7056 029.1944 4718517 259.9834 045.6216 06.06305607 20018
0 BREEZE-M DEB (TANK)
1 39010U 12065C   13294.43804923  .00003047  00000-0  69351-3 0  1880
2 39010 049.7254 027.1741 4718449 261.6915 044.2079 06.06319359 20140
0 BREEZE-M DEB (TANK)
1 39010U 12065C   13295.42733359  .00003946  00000-0  89078-3 0  1891
2 39010 049.7270 026.2337 4718364 262.4865 043.5926 06.06329809 20209
